{
"type": "FeatureCollection",
"name": "nys_regions",
"crs": { "type": "name", "properties": { "name": "urn:ogc:def:crs:OGC:1.3:CRS84" } },
"features": [
{ "type": "Feature", "properties": { "region": "Capital Region" }, "geometry": { "type": "Polygon", "coordinates": [ [ [ -74.042393, 42.170386 ], [ -74.074797, 42.096589 ], [ -74.307571, 42.114346 ], [ -74.53731, 42.201424 ], [ -74.443506, 42.355017 ], [ -74.244692, 42.377159 ], [ -74.254303, 42.408207 ], [ -74.241572, 42.550802 ], [ -74.169725, 42.667426 ], [ -74.180274, 42.729979 ], [ -74.272295, 42.71427 ], [ -74.263314, 42.796534 ], [ -74.083883, 42.897354 ], [ -74.214625, 43.728703 ], [ -73.379312, 43.808478 ], [ -73.350431, 43.771438 ], [ -73.421606, 43.646577 ], [ -73.431229, 43.588285 ], [ -73.400295, 43.568889 ], [ -73.366537, 43.623462 ], [ -73.306234, 43.628018 ], [ -73.242042, 43.534925 ], [ -73.278673, 42.83341 ], [ -73.285388, 42.834093 ], [ -73.290944, 42.80192 ], [ -73.276421, 42.746019 ], [ -73.264957, 42.74594 ], [ -73.508142, 42.086257 ], [ -73.496879, 42.049675 ], [ -73.527072, 41.97798 ], [ -73.71093, 42.005488 ], [ -73.929626, 42.078778 ], [ -73.910675, 42.127293 ], [ -74.042393, 42.170386 ] ] ] } },
{ "type": "Feature", "properties": { "region": "Central New York" }, "geometry": { "type": "Polygon", "coordinates": [ [ [ -76.265584, 42.623588 ], [ -76.666543, 42.623457 ], [ -76.733454, 42.727895 ], [ -76.73674, 42.970286 ], [ -76.713806, 43.024035 ], [ -76.705345, 43.125463 ], [ -76.722501, 43.343686 ], [ -76.684856, 43.352691 ], [ -76.630774, 43.413356 ], [ -76.521999, 43.468617 ], [ -76.486962, 43.47535 ], [ -76.472498, 43.492781 ], [ -76.417581, 43.521285 ], [ -76.368849, 43.525822 ], [ -76.345492, 43.513437 ], [ -76.297103, 43.51287 ], [ -76.228701, 43.532987 ], [ -76.203473, 43.574978 ], [ -76.2005, 43.680231 ], [ -76.022003, 43.668143 ], [ -76.025087, 43.707018 ], [ -75.774553, 43.688884 ], [ -75.756213, 43.470388 ], [ -75.814627, 43.483578 ], [ -75.886756, 43.325021 ], [ -75.884275, 43.155562 ], [ -75.737774, 43.164673 ], [ -75.552774, 43.037554 ], [ -75.544211, 42.93177 ], [ -75.444173, 42.933089 ], [ -75.437167, 42.863319 ], [ -75.247963, 42.871604 ], [ -75.295877, 42.744106 ], [ -75.889832, 42.723844 ], [ -75.86402, 42.415702 ], [ -76.253359, 42.407568 ], [ -76.265584, 42.623588 ] ] ] } },
{ "type": "Feature", "properties": { "region": "Finger Lakes" }, "geometry": { "type": "Polygon", "coordinates": [ [ [ -76.73674, 42.970286 ], [ -76.733454, 42.727895 ], [ -76.666543, 42.623457 ], [ -76.585989, 42.54991 ], [ -76.895596, 42.541537 ], [ -76.889805, 42.463054 ], [ -77.107203, 42.483771 ], [ -77.143795, 42.576869 ], [ -77.659917, 42.580409 ], [ -77.722964, 42.471216 ], [ -77.840231, 42.474576 ], [ -77.840901, 42.517767 ], [ -78.464556, 42.519166 ], [ -78.465502, 43.371232 ], [ -78.104509, 43.375628 ], [ -77.965238, 43.368059 ], [ -77.875335, 43.34966 ], [ -77.760231, 43.341161 ], [ -77.714129, 43.323561 ], [ -77.660359, 43.282998 ], [ -77.577223, 43.243263 ], [ -77.534184, 43.234569 ], [ -77.436831, 43.265701 ], [ -77.341092, 43.280661 ], [ -77.264177, 43.277363 ], [ -77.111866, 43.287945 ], [ -77.033875, 43.271218 ], [ -76.952174, 43.270692 ], [ -76.904288, 43.291816 ], [ -76.794708, 43.309632 ], [ -76.722501, 43.343686 ], [ -76.705345, 43.125463 ], [ -76.713806, 43.024035 ], [ -76.73674, 42.970286 ] ] ] } },
{ "type": "Feature", "properties": { "region": "Hudson Valley" }, "geometry": { "type": "MultiPolygon", "coordinates": [ [ [ [ -73.770576, 40.888399 ], [ -73.770876, 40.879299 ], [ -73.775276, 40.882199 ], [ -73.770576, 40.888399 ] ] ], [ [ [ -73.482709, 41.21276 ], [ -73.727775, 41.100696 ], [ -73.654671, 41.011697 ], [ -73.659972, 40.968398 ], [ -73.678073, 40.962798 ], [ -73.686473, 40.945198 ], [ -73.756776, 40.912599 ], [ -73.783545, 40.88104 ], [ -73.917905, 40.917577 ], [ -73.893979, 40.997197 ], [ -74.234473, 41.142883 ], [ -74.694914, 41.357423 ], [ -74.691129, 41.367324 ], [ -74.752562, 41.426518 ], [ -74.876721, 41.440338 ], [ -74.912517, 41.475605 ], [ -74.984226, 41.506299 ], [ -75.04049, 41.569688 ], [ -75.053077, 41.618552 ], [ -75.053431, 41.752538 ], [ -75.114399, 41.843583 ], [ -75.146446, 41.850899 ], [ -74.451713, 42.169225 ], [ -74.307571, 42.114346 ], [ -74.074797, 42.096589 ], [ -74.042393, 42.170386 ], [ -73.910675, 42.127293 ], [ -73.929626, 42.078778 ], [ -73.71093, 42.005488 ], [ -73.527072, 41.97798 ], [ -73.496879, 42.049675 ], [ -73.487314, 42.049638 ], [ -73.550961, 41.295422 ], [ -73.482709, 41.21276 ] ] ] ] } },
{ "type": "Feature", "properties": { "region": "Long Island" }, "geometry": { "type": "MultiPolygon", "coordinates": [ [ [ [ -73.700872, 40.746866 ], [ -73.768431, 40.800704 ], [ -73.728275, 40.8529 ], [ -73.729575, 40.8665 ], [ -73.713674, 40.870099 ], [ -73.675573, 40.856999 ], [ -73.655872, 40.863899 ], [ -73.654372, 40.878199 ], [ -73.633771, 40.898198 ], [ -73.569969, 40.915398 ], [ -73.548068, 40.908698 ], [ -73.514999, 40.912821 ], [ -73.499941, 40.918166 ], [ -73.485365, 40.946397 ], [ -73.436664, 40.934897 ], [ -73.428836, 40.921506 ], [ -73.406074, 40.920235 ], [ -73.400862, 40.953997 ], [ -73.392862, 40.955297 ], [ -73.352761, 40.926697 ], [ -73.295059, 40.924497 ], [ -73.229285, 40.905121 ], [ -73.148994, 40.928898 ], [ -73.140785, 40.966178 ], [ -73.110368, 40.971938 ], [ -73.081582, 40.973058 ], [ -73.043701, 40.962185 ], [ -72.826057, 40.969794 ], [ -72.774104, 40.965314 ], [ -72.714425, 40.985596 ], [ -72.585327, 40.997587 ], [ -72.521548, 41.037652 ], [ -72.477306, 41.052212 ], [ -72.445242, 41.086116 ], [ -72.397, 41.096307 ], [ -72.356087, 41.133635 ], [ -72.278789, 41.158722 ], [ -72.237731, 41.156434 ], [ -72.265124, 41.128482 ], [ -72.300374, 41.112274 ], [ -72.306381, 41.13784 ], [ -72.32663, 41.132162 ], [ -72.335177, 41.106917 ], [ -72.317238, 41.088659 ], [ -72.280373, 41.080402 ], [ -72.283093, 41.067874 ], [ -72.260515, 41.042065 ], [ -72.229364, 41.044355 ], [ -72.190563, 41.032579 ], [ -72.162898, 41.053187 ], [ -72.153857, 41.051859 ], [ -72.137297, 41.039684 ], [ -72.137409, 41.023908 ], [ -72.10216, 40.991509 ], [ -72.083039, 40.996453 ], [ -72.076175, 41.009093 ], [ -72.051585, 41.006437 ], [ -72.047468, 41.022565 ], [ -72.035792, 41.020759 ], [ -71.96704, 41.047772 ], [ -71.959595, 41.071237 ], [ -71.899256, 41.080837 ], [ -71.856214, 41.070598 ], [ -71.87391, 41.052278 ], [ -71.903736, 41.040166 ], [ -72.114448, 40.972085 ], [ -72.469996, 40.84274 ], [ -72.863164, 40.732962 ], [ -73.054963, 40.666371 ], [ -73.23914, 40.6251 ], [ -73.306396, 40.620756 ], [ -73.319257, 40.635795 ], [ -73.562372, 40.583703 ], [ -73.754776, 40.584404 ], [ -73.700872, 40.746866 ] ] ], [ [ [ -72.126704, 41.115139 ], [ -72.084207, 41.101524 ], [ -72.086975, 41.058292 ], [ -72.0972, 41.054884 ], [ -72.097136, 41.075844 ], [ -72.1064, 41.088883 ], [ -72.141921, 41.094371 ], [ -72.126704, 41.115139 ] ] ], [ [ [ -71.926802, 41.290122 ], [ -72.002461, 41.252867 ], [ -72.036846, 41.249794 ], [ -72.018926, 41.274114 ], [ -71.926802, 41.290122 ] ] ] ] } },
{ "type": "Feature", "properties": { "region": "Mohawk Valley" }, "geometry": { "type": "Polygon", "coordinates": [ [ [ -74.71158, 42.517799 ], [ -74.97494, 42.467488 ], [ -75.197237, 42.358329 ], [ -75.415319, 42.314151 ], [ -75.374905, 42.410784 ], [ -75.404464, 42.479117 ], [ -75.330143, 42.568082 ], [ -75.295877, 42.744106 ], [ -75.247963, 42.871604 ], [ -75.437167, 42.863319 ], [ -75.444173, 42.933089 ], [ -75.544211, 42.93177 ], [ -75.552774, 43.037554 ], [ -75.737774, 43.164673 ], [ -75.884275, 43.155562 ], [ -75.886756, 43.325021 ], [ -75.814627, 43.483578 ], [ -75.5335, 43.419756 ], [ -75.11016, 43.615229 ], [ -75.170159, 44.096959 ], [ -75.062779, 44.0504 ], [ -74.854171, 44.070089 ], [ -74.775617, 43.486677 ], [ -74.867712, 43.339826 ], [ -74.534657, 43.228115 ], [ -74.326378, 43.241635 ], [ -74.220902, 43.221403 ], [ -74.140147, 43.253979 ], [ -74.083883, 42.897354 ], [ -74.263314, 42.796534 ], [ -74.272295, 42.71427 ], [ -74.180274, 42.729979 ], [ -74.169725, 42.667426 ], [ -74.241572, 42.550802 ], [ -74.254303, 42.408207 ], [ -74.244692, 42.377159 ], [ -74.443506, 42.355017 ], [ -74.618895, 42.424389 ], [ -74.71158, 42.517799 ] ] ] } },
{ "type": "Feature", "properties": { "region": "New York City" }, "geometry": { "type": "MultiPolygon", "coordinates": [ [ [ [ -74.144428, 40.53516 ], [ -74.246688, 40.496103 ], [ -74.256088, 40.507903 ], [ -74.242888, 40.520903 ], [ -74.247808, 40.543396 ], [ -74.210887, 40.560902 ], [ -74.195407, 40.601806 ], [ -74.20058, 40.631448 ], [ -74.1894, 40.642121 ], [ -74.152973, 40.638886 ], [ -74.075884, 40.648101 ], [ -74.053125, 40.603678 ], [ -74.059184, 40.593502 ], [ -74.111471, 40.546908 ], [ -74.137241, 40.530076 ], [ -74.144428, 40.53516 ] ] ], [ [ [ -73.95938, 40.572682 ], [ -74.00903, 40.572846 ], [ -74.012996, 40.578169 ], [ -74.003281, 40.595754 ], [ -74.03959, 40.612934 ], [ -74.038336, 40.637074 ], [ -74.018272, 40.659019 ], [ -74.024827, 40.687007 ], [ -74.0168, 40.701794 ], [ -74.024543, 40.709436 ], [ -74.013784, 40.756601 ], [ -73.917905, 40.917577 ], [ -73.783545, 40.88104 ], [ -73.788786, 40.858485 ], [ -73.781206, 40.838891 ], [ -73.793785, 40.855583 ], [ -73.81281, 40.846737 ], [ -73.811889, 40.825363 ], [ -73.781369, 40.794907 ], [ -73.768431, 40.800704 ], [ -73.700872, 40.746866 ], [ -73.754323, 40.586357 ], [ -73.774928, 40.590759 ], [ -73.806834, 40.584619 ], [ -73.934512, 40.545175 ], [ -73.935686, 40.564914 ], [ -73.95938, 40.572682 ] ] ], [ [ [ -74.04086, 40.700117 ], [ -74.044451, 40.688445 ], [ -74.046359, 40.689175 ], [ -74.04086, 40.700117 ] ] ], [ [ [ -73.773361, 40.859449 ], [ -73.766032, 40.844961 ], [ -73.769648, 40.84466 ], [ -73.773361, 40.859449 ] ] ] ] } },
{ "type": "Feature", "properties": { "region": "North Country" }, "geometry": { "type": "Polygon", "coordinates": [ [ [ -74.214625, 43.728703 ], [ -74.140147, 43.253979 ], [ -74.220902, 43.221403 ], [ -74.326378, 43.241635 ], [ -74.534657, 43.228115 ], [ -74.867712, 43.339826 ], [ -74.775617, 43.486677 ], [ -74.854171, 44.070089 ], [ -75.062779, 44.0504 ], [ -75.170159, 44.096959 ], [ -75.11016, 43.615229 ], [ -75.5335, 43.419756 ], [ -75.756213, 43.470388 ], [ -75.774553, 43.688884 ], [ -76.025087, 43.707018 ], [ -76.022003, 43.668143 ], [ -76.2005, 43.680231 ], [ -76.229268, 43.804135 ], [ -76.250135, 43.825713 ], [ -76.283307, 43.843923 ], [ -76.28272, 43.858601 ], [ -76.243384, 43.877975 ], [ -76.202257, 43.864898 ], [ -76.133267, 43.892975 ], [ -76.125023, 43.912773 ], [ -76.134296, 43.954726 ], [ -76.146072, 43.964705 ], [ -76.169802, 43.962202 ], [ -76.22805, 43.982737 ], [ -76.264294, 43.978009 ], [ -76.269672, 44.001148 ], [ -76.298962, 44.017719 ], [ -76.300532, 44.057188 ], [ -76.360306, 44.070907 ], [ -76.366972, 44.100409 ], [ -76.355679, 44.133258 ], [ -76.312647, 44.199044 ], [ -76.245487, 44.203669 ], [ -76.206777, 44.214543 ], [ -76.164265, 44.239603 ], [ -76.118136, 44.29485 ], [ -76.000998, 44.347534 ], [ -75.970185, 44.342835 ], [ -75.912985, 44.368084 ], [ -75.82083, 44.432244 ], [ -75.807778, 44.471644 ], [ -75.765495, 44.516285 ], [ -75.491201, 44.712947 ], [ -75.301975, 44.826637 ], [ -75.30763, 44.836813 ], [ -75.216486, 44.877478 ], [ -75.139868, 44.896676 ], [ -75.064826, 44.929449 ], [ -75.005155, 44.958402 ], [ -74.992756, 44.977449 ], [ -74.826578, 45.01585 ], [ -74.702018, 45.003322 ], [ -74.146814, 44.9915 ], [ -73.343124, 45.01084 ], [ -73.369647, 44.829136 ], [ -73.339958, 44.778893 ], [ -73.390231, 44.618353 ], [ -73.374389, 44.575455 ], [ -73.33863, 44.546844 ], [ -73.306707, 44.500334 ], [ -73.293613, 44.438903 ], [ -73.315016, 44.388513 ], [ -73.324681, 44.243614 ], [ -73.390583, 44.190886 ], [ -73.437429, 44.046861 ], [ -73.405999, 44.016229 ], [ -73.407742, 43.929887 ], [ -73.379312, 43.808478 ], [ -74.214625, 43.728703 ] ] ] } },
{ "type": "Feature", "properties": { "region": "Southern Tier" }, "geometry": { "type": "Polygon", "coordinates": [ [ [ -75.359579, 41.999445 ], [ -77.749931, 41.998782 ], [ -77.722964, 42.471216 ], [ -77.659917, 42.580409 ], [ -77.143795, 42.576869 ], [ -77.107203, 42.483771 ], [ -76.889805, 42.463054 ], [ -76.895596, 42.541537 ], [ -76.585989, 42.54991 ], [ -76.666543, 42.623457 ], [ -76.265584, 42.623588 ], [ -76.253359, 42.407568 ], [ -75.86402, 42.415702 ], [ -75.889832, 42.723844 ], [ -75.295877, 42.744106 ], [ -75.330143, 42.568082 ], [ -75.404464, 42.479117 ], [ -75.374905, 42.410784 ], [ -75.415319, 42.314151 ], [ -75.197237, 42.358329 ], [ -74.97494, 42.467488 ], [ -74.71158, 42.517799 ], [ -74.618895, 42.424389 ], [ -74.443506, 42.355017 ], [ -74.53731, 42.201424 ], [ -74.451713, 42.169225 ], [ -75.146446, 41.850899 ], [ -75.263005, 41.885109 ], [ -75.279094, 41.938917 ], [ -75.341868, 41.993262 ], [ -75.359579, 41.999445 ] ] ] } },
{ "type": "Feature", "properties": { "region": "Western New York" }, "geometry": { "type": "Polygon", "coordinates": [ [ [ -77.749931, 41.998782 ], [ -79.761374, 41.999067 ], [ -79.761951, 42.26986 ], [ -79.645358, 42.315631 ], [ -79.453533, 42.411157 ], [ -79.351989, 42.48892 ], [ -79.331483, 42.489076 ], [ -79.242889, 42.531757 ], [ -79.148723, 42.553672 ], [ -79.111361, 42.613358 ], [ -79.06376, 42.644758 ], [ -79.062261, 42.668358 ], [ -79.04886, 42.689158 ], [ -78.918157, 42.737258 ], [ -78.853455, 42.783958 ], [ -78.865592, 42.852358 ], [ -78.891655, 42.884845 ], [ -78.912458, 42.886557 ], [ -78.905758, 42.899957 ], [ -78.909159, 42.933257 ], [ -78.93236, 42.955857 ], [ -79.011563, 42.985256 ], [ -79.019964, 42.994756 ], [ -79.028653, 43.069474 ], [ -79.058399, 43.075231 ], [ -79.066269, 43.09097 ], [ -79.056767, 43.126855 ], [ -79.042366, 43.143655 ], [ -79.058399, 43.238924 ], [ -79.070469, 43.262454 ], [ -78.634346, 43.357624 ], [ -78.482526, 43.374425 ], [ -78.465502, 43.371232 ], [ -78.460416, 43.216222 ], [ -78.464556, 42.519166 ], [ -77.840901, 42.517767 ], [ -77.840231, 42.474576 ], [ -77.722964, 42.471216 ], [ -77.749931, 41.998782 ] ] ] } }
]
}
